{"type": "FeatureCollection", "features": [ {"type": "Feature", "properties": {"norad_id": 34976, "name": "COSMOS 2251 DEB", "group": "cosmos-2251-debris", "lat": 73.31696059353861, "lon": 16.577250322574706, "alt_km": 635.1176449558898, "timestamp": "2025-12-13T20:38:51.403588+00:00", "meta": {"OBJECT_NAME": "COSMOS 2251 DEB", "OBJECT_ID": "1993-036AFF", "EPOCH": "2025-12-13T07:56:41.548416", "MEAN_MOTION": 14.76592606, "ECCENTRICITY": 0.00477865, "INCLINATION": 74.0573, "RA_OF_ASC_NODE": 305.0908, "ARG_OF_PERICENTER": 351.7556, "MEAN_ANOMALY": 160.4025, "EPHEMERIS_TYPE": 0, "CLASSIFICATION_TYPE": "U", "NORAD_CAT_ID": 34976, "ELEMENT_SET_NO": 999, "REV_AT_EPOCH": 88282, "BSTAR": 0.0027408178, "MEAN_MOTION_DOT": 0.00019521, "MEAN_MOTION_DDOT": 0}, "tle": {"line1": "1 34976U 93036AFF 25347.33103644  .00019521  00000+0  27408-2 0  9995", "line2": "2 34976  74.0573 305.0908 0047786 351.7556 160.4025 14.76592606882828"}}, "geometry": {"type": "Point", "coordinates": [16.577250322574706, 73.31696059353861]}}, {"type": "Feature", "properties": {"norad_id": 34979, "name": "COSMOS 2251 DEB", "group": "cosmos-2251-debris", "lat": 34.01912435030122, "lon": 73.92115187829117, "alt_km": 661.3628283345333, "timestamp": "2025-12-13T20:38:51.403598+00:00", "meta": {"OBJECT_NAME": "COSMOS 2251 DEB", "OBJECT_ID": "1993-036AFJ", "EPOCH": "2025-12-12T18:01:47.285472", "MEAN_MOTION": 14.79355738, "ECCENTRICITY": 0.00490418, "INCLINATION": 74.0395, "RA_OF_ASC_NODE": 267.2405, "ARG_OF_PERICENTER": 345.1365, "MEAN_ANOMALY": 14.8366, "EPHEMERIS_TYPE": 0, "CLASSIFICATION_TYPE": "U", "NORAD_CAT_ID": 34979, "ELEMENT_SET_NO": 999, "REV_AT_EPOCH": 88220, "BSTAR": 0.0018975921, "MEAN_MOTION_DOT": 0.00014425, "MEAN_MOTION_DDOT": 0}, "tle": {"line1": "1 34979U 93036AFJ 25346.75124173  .00014425  00000+0  18976-2 0  9991", "line2": "2 34979  74.0395 267.2405 0049041 345.1365  14.8366 14.79355738882203"}}, "geometry": {"type": "Point", "coordinates": [73.92115187829117, 34.01912435030122]}}, {"type": "Feature", "properties": {"norad_id": 34990, "name": "COSMOS 2251 DEB", "group": "cosmos-2251-debris", "lat": 71.61720587343197, "lon": 9.850927706552685, "alt_km": 753.1495267556966, "timestamp": "2025-12-13T20:38:51.403608+00:00", "meta": {"OBJECT_NAME": "COSMOS 2251 DEB", "OBJECT_ID": "1993-036AFN", "EPOCH": "2025-12-11T11:35:34.713024", "MEAN_MOTION": 14.42369611, "ECCENTRICITY": 0.001637, "INCLINATION": 74.0455, "RA_OF_ASC_NODE": 253.6657, "ARG_OF_PERICENTER": 317.4187, "MEAN_ANOMALY": 42.5699, "EPHEMERIS_TYPE": 0, "CLASSIFICATION_TYPE": "U", "NORAD_CAT_ID": 34990, "ELEMENT_SET_NO": 999, "REV_AT_EPOCH": 87328, "BSTAR": 0.00064071244, "MEAN_MOTION_DOT": 2.095e-05, "MEAN_MOTION_DDOT": 0}, "tle": {"line1": "1 34990U 93036AFN 25345.48304066  .00002095  00000+0  64071-3 0  9992", "line2": "2 34990  74.0455 253.6657 0016370 317.4187  42.5699 14.42369611873284"}}, "geometry": {"type": "Point", "coordinates": [9.850927706552685, 71.61720587343197]}}, {"type": "Feature", "properties": {"norad_id": 34997, "name": "COSMOS 2251 DEB", "group": "cosmos-2251-debris", "lat": -72.28145676923388, "lon": -115.75857351497865, "alt_km": 677.8000554397959, "timestamp": "2025-12-13T20:38:51.403618+00:00", "meta": {"OBJECT_NAME": "COSMOS 2251 DEB", "OBJECT_ID": "1993-036AFV", "EPOCH": "2025-12-12T15:07:37.525152", "MEAN_MOTION": 14.4555903, "ECCENTRICITY": 0.00978968, "INCLINATION": 73.8801, "RA_OF_ASC_NODE": 311.4025, "ARG_OF_PERICENTER": 286.4207, "MEAN_ANOMALY": 72.6207, "EPHEMERIS_TYPE": 0, "CLASSIFICATION_TYPE": "U", "NORAD_CAT_ID": 34997, "ELEMENT_SET_NO": 999, "REV_AT_EPOCH": 70745, "BSTAR": 0.0024908472, "MEAN_MOTION_DOT": 9.311e-05, "MEAN_MOTION_DDOT": 0}, "tle": {"line1": "1 34997U 93036AFV 25346.63029543  .00009311  00000+0  24908-2 0  9993", "line2": "2 34997  73.8801 311.4025 0097896 286.4207  72.6207 14.45559030707458"}}, "geometry": {"type": "Point", "coordinates": [-115.75857351497865, -72.28145676923388]}}, {"type": "Feature", "properties": {"norad_id": 34998, "name": "COSMOS 2251 DEB", "group": "cosmos-2251-debris", "lat": 8.029072688081442, "lon": -24.43853735820396, "alt_km": 739.4254615647578, "timestamp": "2025-12-13T20:38:51.403628+00:00", "meta": {"OBJECT_NAME": "COSMOS 2251 DEB", "OBJECT_ID": "1993-036AFW", "EPOCH": "2025-12-12T20:58:41.255904", "MEAN_MOTION": 14.49281835, "ECCENTRICITY": 0.00211297, "INCLINATION": 74.0099, "RA_OF_ASC_NODE": 159.7316, "ARG_OF_PERICENTER": 305.1196, "MEAN_ANOMALY": 123.1096, "EPHEMERIS_TYPE": 0, "CLASSIFICATION_TYPE": "U", "NORAD_CAT_ID": 34998, "ELEMENT_SET_NO": 999, "REV_AT_EPOCH": 87422, "BSTAR": 0.00089404423, "MEAN_MOTION_DOT": 3.394e-05, "MEAN_MOTION_DDOT": 0}, "tle": {"line1": "1 34998U 93036AFW 25346.87408861  .00003394  00000+0  89404-3 0  9992", "line2": "2 34998  74.0099 159.7316 0021129 305.1196 123.1096 14.49281835874226"}}, "geometry": {"type": "Point", "coordinates": [-24.43853735820396, 8.029072688081442]}}, {"type": "Feature", "properties": {"norad_id": 35000, "name": "COSMOS 2251 DEB", "group": "cosmos-2251-debris", "lat": 23.82703979075796, "lon": -157.4867693813594, "alt_km": 260.71828138277397, "timestamp": "2025-12-13T20:38:51.403639+00:00", "meta": {"OBJECT_NAME": "COSMOS 2251 DEB", "OBJECT_ID": "1993-036AFY", "EPOCH": "2025-12-10T00:39:45.535104", "MEAN_MOTION": 15.84722247, "ECCENTRICITY": 0.00096992, "INCLINATION": 73.9939, "RA_OF_ASC_NODE": 204.1935, "ARG_OF_PERICENTER": 175.3945, "MEAN_ANOMALY": 184.7377, "EPHEMERIS_TYPE": 0, "CLASSIFICATION_TYPE": "U", "NORAD_CAT_ID": 35000, "ELEMENT_SET_NO": 999, "REV_AT_EPOCH": 88472, "BSTAR": 0.007821664, "MEAN_MOTION_DOT": 0.0209211, "MEAN_MOTION_DDOT": 0}, "tle": {"line1": "1 35000U 93036AFY 25344.02761036  .02092110  00000+0  78217-2 0  9993", "line2": "2 35000  73.9939 204.1935 0009699 175.3945 184.7377 15.84722247884729"}}, "geometry": {"type": "Point", "coordinates": [-157.4867693813594, 23.82703979075796]}}, {"type": "Feature", "properties": {"norad_id": 35012, "name": "COSMOS 2251 DEB", "group": "cosmos-2251-debris", "lat": 47.98471060645294, "lon": -88.90038411001021, "alt_km": 764.4987231698115, "timestamp": "2025-12-13T20:38:51.403649+00:00", "meta": {"OBJECT_NAME": "COSMOS 2251 DEB", "OBJECT_ID": "1993-036AFZ", "EPOCH": "2025-12-13T01:46:23.941344", "MEAN_MOTION": 14.45549522, "ECCENTRICITY": 0.00816615, "INCLINATION": 74.0206, "RA_OF_ASC_NODE": 111.1129, "ARG_OF_PERICENTER": 251.2179, "MEAN_ANOMALY": 108.0107, "EPHEMERIS_TYPE": 0, "CLASSIFICATION_TYPE": "U", "NORAD_CAT_ID": 35012, "ELEMENT_SET_NO": 999, "REV_AT_EPOCH": 87566, "BSTAR": 0.00028205088, "MEAN_MOTION_DOT": 1.008e-05, "MEAN_MOTION_DDOT": 0}, "tle": {"line1": "1 35012U 93036AFZ 25347.07388821  .00001008  00000+0  28205-3 0  9998", "line2": "2 35012  74.0206 111.1129 0081661 251.2179 108.0107 14.45549522875667"}}, "geometry": {"type": "Point", "coordinates": [-88.90038411001021, 47.98471060645294]}}, {"type": "Feature", "properties": {"norad_id": 35014, "name": "COSMOS 2251 DEB", "group": "cosmos-2251-debris", "lat": -3.742239756528146, "lon": 40.268986305664654, "alt_km": 651.5782381955742, "timestamp": "2025-12-13T20:38:51.403659+00:00", "meta": {"OBJECT_NAME": "COSMOS 2251 DEB", "OBJECT_ID": "1993-036AGB", "EPOCH": "2025-12-10T11:17:04.408224", "MEAN_MOTION": 14.75108648, "ECCENTRICITY": 0.0007489, "INCLINATION": 73.9993, "RA_OF_ASC_NODE": 47.9831, "ARG_OF_PERICENTER": 224.1256, "MEAN_ANOMALY": 135.932, "EPHEMERIS_TYPE": 0, "CLASSIFICATION_TYPE": "U", "NORAD_CAT_ID": 35014, "ELEMENT_SET_NO": 999, "REV_AT_EPOCH": 71303, "BSTAR": 0.0024781418, "MEAN_MOTION_DOT": 0.00016732, "MEAN_MOTION_DDOT": 0}, "tle": {"line1": "1 35014U 93036AGB 25344.47018991  .00016732  00000+0  24781-2 0  9993", "line2": "2 35014  73.9993  47.9831 0007489 224.1256 135.9320 14.75108648713038"}}, "geometry": {"type": "Point", "coordinates": [40.268986305664654, -3.742239756528146]}}, {"type": "Feature", "properties": {"norad_id": 35015, "name": "COSMOS 2251 DEB", "group": "cosmos-2251-debris", "lat": -73.884345215297, "lon": 147.42040343958516, "alt_km": 794.7864953364742, "timestamp": "2025-12-13T20:38:51.403669+00:00", "meta": {"OBJECT_NAME": "COSMOS 2251 DEB", "OBJECT_ID": "1993-036AGC", "EPOCH": "2025-12-08T23:19:05.687904", "MEAN_MOTION": 14.46841193, "ECCENTRICITY": 0.0074204, "INCLINATION": 73.9478, "RA_OF_ASC_NODE": 241.8046, "ARG_OF_PERICENTER": 111.6456, "MEAN_ANOMALY": 265.9615, "EPHEMERIS_TYPE": 0, "CLASSIFICATION_TYPE": "U", "NORAD_CAT_ID": 35015, "ELEMENT_SET_NO": 999, "REV_AT_EPOCH": 65386, "BSTAR": 0.00095869, "MEAN_MOTION_DOT": 3.57e-05, "MEAN_MOTION_DDOT": 0}, "tle": {"line1": "1 35015U 93036AGC 25342.97159361  .00003570  00000+0  95869-3 0  9996", "line2": "2 35015  73.9478 241.8046 0074204 111.6456 265.9615 14.46841193653863"}}, "geometry": {"type": "Point", "coordinates": [147.42040343958516, -73.884345215297]}}, {"type": "Feature", "properties": {"norad_id": 35016, "name": "COSMOS 2251 DEB", "group": "cosmos-2251-debris", "lat": -61.73630333777149, "lon": 144.778167437847, "alt_km": 716.1393519103904, "timestamp": "2025-12-13T20:38:51.403679+00:00", "meta": {"OBJECT_NAME": "COSMOS 2251 DEB", "OBJECT_ID": "1993-036AGD", "EPOCH": "2025-12-12T14:13:37.756704", "MEAN_MOTION": 14.35060321, "ECCENTRICITY": 0.01145219, "INCLINATION": 73.9299, "RA_OF_ASC_NODE": 294.6934, "ARG_OF_PERICENTER": 211.7131, "MEAN_ANOMALY": 328.2097, "EPHEMERIS_TYPE": 0, "CLASSIFICATION_TYPE": "U", "NORAD_CAT_ID": 35016, "ELEMENT_SET_NO": 999, "REV_AT_EPOCH": 86780, "BSTAR": 0.00052896522, "MEAN_MOTION_DOT": 1.596e-05, "MEAN_MOTION_DDOT": 0}, "tle": {"line1": "1 35016U 93036AGD 25346.59279811  .00001596  00000+0  52897-3 0  9992", "line2": "2 35016  73.9299 294.6934 0114521 211.7131 328.2097 14.35060321867808"}}, "geometry": {"type": "Point", "coordinates": [144.778167437847, -61.73630333777149]}}]}